IRIDIUM 63              
1 25286U 98021B   25358.11874095  .00000380  00000+0  12240-3 0  9993
2 25286  86.3980   2.4385 0002317  85.0473 275.0989 14.36744304451119
IRIDIUM 69              
1 25319U 98026A   25358.10140470  .00000396  00000+0  11664-3 0  9993
2 25319  86.3971  15.1344 0004522 104.8486 255.3215 14.41226567450413
IRIDIUM 71              
1 25320U 98026B   25358.08739642  .00000282  00000+0  81147-4 0  9995
2 25320  86.3971   9.8120 0003056 134.8152 225.3296 14.41324496450945
IRIDIUM 73              
1 25344U 98032C   25358.14982006  .00000648  00000+0  15550-3 0  9999
2 25344  86.4416 326.1392 0003008  84.1709 275.9840 14.52004382458129
IRIDIUM 82              
1 25467U 98051A   25358.09667576  .00044810  00000+0  81224-3 0  9992
2 25467  86.3599  15.3857 0057576 289.5942  69.9106 15.47557259453153
